{"type": "FeatureCollection", "features": [ {"type": "Feature", "properties": {"norad_id": 41785, "name": "ALSAT 1B", "group": "resource", "lat": -9.79573444106522, "lon": 9.568887846781054, "alt_km": 657.8935968120422, "timestamp": "2025-12-22T20:43:45.500245+00:00", "meta": {"OBJECT_NAME": "ALSAT 1B", "OBJECT_ID": "2016-059C", "EPOCH": "2025-12-22T14:14:55.582368", "MEAN_MOTION": 14.72084419, "ECCENTRICITY": 0.00108027, "INCLINATION": 97.7803, "RA_OF_ASC_NODE": 7.9579, "ARG_OF_PERICENTER": 75.6929, "MEAN_ANOMALY": 284.5478, "EPHEMERIS_TYPE": 0, "CLASSIFICATION_TYPE": "U", "NORAD_CAT_ID": 41785, "ELEMENT_SET_NO": 999, "REV_AT_EPOCH": 49459, "BSTAR": 5.6687532e-05, "MEAN_MOTION_DOT": 3.1e-06, "MEAN_MOTION_DDOT": 0}, "tle": {"line1": "1 41785U 16059C   25356.59369887  .00000310  00000+0  56688-4 0  9992", "line2": "2 41785  97.7803   7.9579 0010802  75.6929 284.5478 14.72084419494596"}}, "geometry": {"type": "Point", "coordinates": [9.568887846781054, -9.79573444106522]}}, {"type": "Feature", "properties": {"norad_id": 41787, "name": "PATHFINDER 1", "group": "resource", "lat": -73.96473163779125, "lon": 150.62737499413774, "alt_km": 695.7885240160876, "timestamp": "2025-12-22T20:43:45.500255+00:00", "meta": {"OBJECT_NAME": "PATHFINDER 1", "OBJECT_ID": "2016-059E", "EPOCH": "2025-12-22T13:01:13.857600", "MEAN_MOTION": 14.67337451, "ECCENTRICITY": 0.00297381, "INCLINATION": 97.8137, "RA_OF_ASC_NODE": 358.8612, "ARG_OF_PERICENTER": 51.3287, "MEAN_ANOMALY": 309.0572, "EPHEMERIS_TYPE": 0, "CLASSIFICATION_TYPE": "U", "NORAD_CAT_ID": 41787, "ELEMENT_SET_NO": 999, "REV_AT_EPOCH": 49380, "BSTAR": 0.00013297129, "MEAN_MOTION_DOT": 7.09e-06, "MEAN_MOTION_DDOT": 0}, "tle": {"line1": "1 41787U 16059E   25356.54252150  .00000709  00000+0  13297-3 0  9993", "line2": "2 41787  97.8137 358.8612 0029738  51.3287 309.0572 14.67337451493803"}}, "geometry": {"type": "Point", "coordinates": [150.62737499413774, -73.96473163779125]}}, {"type": "Feature", "properties": {"norad_id": 41790, "name": "SCATSAT 1", "group": "resource", "lat": -47.83552837141123, "lon": 62.759014831561004, "alt_km": 671.5719766004195, "timestamp": "2025-12-22T20:43:45.500265+00:00", "meta": {"OBJECT_NAME": "SCATSAT 1", "OBJECT_ID": "2016-059H", "EPOCH": "2025-12-22T14:27:15.854112", "MEAN_MOTION": 14.78966851, "ECCENTRICITY": 0.00564639, "INCLINATION": 98.1449, "RA_OF_ASC_NODE": 53.3952, "ARG_OF_PERICENTER": 96.9229, "MEAN_ANOMALY": 263.8409, "EPHEMERIS_TYPE": 0, "CLASSIFICATION_TYPE": "U", "NORAD_CAT_ID": 41790, "ELEMENT_SET_NO": 999, "REV_AT_EPOCH": 7548, "BSTAR": 0.00017791286, "MEAN_MOTION_DOT": 1.292e-05, "MEAN_MOTION_DDOT": 0}, "tle": {"line1": "1 41790U 16059H   25356.60226683  .00001292  00000+0  17791-3 0  9997", "line2": "2 41790  98.1449  53.3952 0056463  96.9229 263.8409 14.78966851 75487"}}, "geometry": {"type": "Point", "coordinates": [62.759014831561004, -47.83552837141123]}}, {"type": "Feature", "properties": {"norad_id": 41875, "name": "GOKTURK 1A", "group": "resource", "lat": 11.621042535340557, "lon": 70.78123990810636, "alt_km": 685.471246116781, "timestamp": "2025-12-22T20:43:45.500275+00:00", "meta": {"OBJECT_NAME": "GOKTURK 1A", "OBJECT_ID": "2016-073A", "EPOCH": "2025-12-22T15:02:17.451168", "MEAN_MOTION": 14.62789608, "ECCENTRICITY": 0.00012887, "INCLINATION": 98.1433, "RA_OF_ASC_NODE": 248.8599, "ARG_OF_PERICENTER": 83.0655, "MEAN_ANOMALY": 277.0694, "EPHEMERIS_TYPE": 0, "CLASSIFICATION_TYPE": "U", "NORAD_CAT_ID": 41875, "ELEMENT_SET_NO": 999, "REV_AT_EPOCH": 48301, "BSTAR": 7.8480153e-05, "MEAN_MOTION_DOT": 3.54e-06, "MEAN_MOTION_DDOT": 0}, "tle": {"line1": "1 41875U 16073A   25356.62659087  .00000354  00000+0  78480-4 0  9998", "line2": "2 41875  98.1433 248.8599 0001288  83.0655 277.0694 14.62789608483018"}}, "geometry": {"type": "Point", "coordinates": [70.78123990810636, 11.621042535340557]}}, {"type": "Feature", "properties": {"norad_id": 41877, "name": "RESOURCESAT-2A", "group": "resource", "lat": 21.048291512152197, "lon": -109.9315837409645, "alt_km": 819.0871295808975, "timestamp": "2025-12-22T20:43:45.500285+00:00", "meta": {"OBJECT_NAME": "RESOURCESAT-2A", "OBJECT_ID": "2016-074A", "EPOCH": "2025-12-22T14:55:05.145312", "MEAN_MOTION": 14.2160409, "ECCENTRICITY": 0.0001479, "INCLINATION": 98.7748, "RA_OF_ASC_NODE": 66.4201, "ARG_OF_PERICENTER": 209.6695, "MEAN_ANOMALY": 150.4399, "EPHEMERIS_TYPE": 0, "CLASSIFICATION_TYPE": "U", "NORAD_CAT_ID": 41877, "ELEMENT_SET_NO": 999, "REV_AT_EPOCH": 46921, "BSTAR": 0.00018307976, "MEAN_MOTION_DOT": 3.57e-06, "MEAN_MOTION_DDOT": 0}, "tle": {"line1": "1 41877U 16074A   25356.62158733  .00000357  00000+0  18308-3 0  9998", "line2": "2 41877  98.7748  66.4201 0001479 209.6695 150.4399 14.21604090469219"}}, "geometry": {"type": "Point", "coordinates": [-109.9315837409645, 21.048291512152197]}}, {"type": "Feature", "properties": {"norad_id": 41948, "name": "CARTOSAT-2D", "group": "resource", "lat": 59.29347663402928, "lon": -113.08573460554433, "alt_km": 498.4918447042737, "timestamp": "2025-12-22T20:43:45.500295+00:00", "meta": {"OBJECT_NAME": "CARTOSAT-2D", "OBJECT_ID": "2017-008A", "EPOCH": "2025-12-22T09:08:22.104960", "MEAN_MOTION": 15.193474, "ECCENTRICITY": 0.00053551, "INCLINATION": 97.4376, "RA_OF_ASC_NODE": 53.7321, "ARG_OF_PERICENTER": 134.1961, "MEAN_ANOMALY": 225.9714, "EPHEMERIS_TYPE": 0, "CLASSIFICATION_TYPE": "U", "NORAD_CAT_ID": 41948, "ELEMENT_SET_NO": 999, "REV_AT_EPOCH": 49073, "BSTAR": 0.00028059148, "MEAN_MOTION_DOT": 5.865e-05, "MEAN_MOTION_DDOT": 0}, "tle": {"line1": "1 41948U 17008A   25356.38081140  .00005865  00000+0  28059-3 0  9998", "line2": "2 41948  97.4376  53.7321 0005355 134.1961 225.9714 15.19347400490735"}}, "geometry": {"type": "Point", "coordinates": [-113.08573460554433, 59.29347663402928]}}, {"type": "Feature", "properties": {"norad_id": 42063, "name": "SENTINEL-2B", "group": "resource", "lat": 74.96325460012085, "lon": -76.67944309835713, "alt_km": 781.0263717410626, "timestamp": "2025-12-22T20:43:45.500305+00:00", "meta": {"OBJECT_NAME": "SENTINEL-2B", "OBJECT_ID": "2017-013A", "EPOCH": "2025-12-22T13:32:21.689952", "MEAN_MOTION": 14.30814366, "ECCENTRICITY": 0.00011846, "INCLINATION": 98.5709, "RA_OF_ASC_NODE": 68.8724, "ARG_OF_PERICENTER": 91.3433, "MEAN_ANOMALY": 268.7886, "EPHEMERIS_TYPE": 0, "CLASSIFICATION_TYPE": "U", "NORAD_CAT_ID": 42063, "ELEMENT_SET_NO": 999, "REV_AT_EPOCH": 45938, "BSTAR": 7.8399828e-05, "MEAN_MOTION_DOT": 1.62e-06, "MEAN_MOTION_DDOT": 0}, "tle": {"line1": "1 42063U 17013A   25356.56413993  .00000162  00000+0  78400-4 0  9999", "line2": "2 42063  98.5709  68.8724 0001184  91.3433 268.7886 14.30814366459387"}}, "geometry": {"type": "Point", "coordinates": [-76.67944309835713, 74.96325460012085]}}, {"type": "Feature", "properties": {"norad_id": 42767, "name": "CARTOSAT-2E", "group": "resource", "lat": 28.10651748973578, "lon": 50.30877578853231, "alt_km": 508.55636604021765, "timestamp": "2025-12-22T20:43:45.500315+00:00", "meta": {"OBJECT_NAME": "CARTOSAT-2E", "OBJECT_ID": "2017-036C", "EPOCH": "2025-12-22T14:16:55.235136", "MEAN_MOTION": 15.19291516, "ECCENTRICITY": 0.00026597, "INCLINATION": 97.4542, "RA_OF_ASC_NODE": 54.0536, "ARG_OF_PERICENTER": 190.3951, "MEAN_ANOMALY": 169.7229, "EPHEMERIS_TYPE": 0, "CLASSIFICATION_TYPE": "U", "NORAD_CAT_ID": 42767, "ELEMENT_SET_NO": 999, "REV_AT_EPOCH": 47133, "BSTAR": 0.00033207993, "MEAN_MOTION_DOT": 6.941e-05, "MEAN_MOTION_DDOT": 0}, "tle": {"line1": "1 42767U 17036C   25356.59508374  .00006941  00000+0  33208-3 0  9993", "line2": "2 42767  97.4542  54.0536 0002659 190.3951 169.7229 15.19291516471336"}}, "geometry": {"type": "Point", "coordinates": [50.30877578853231, 28.10651748973578]}}, {"type": "Feature", "properties": {"norad_id": 42920, "name": "FORMOSAT-5", "group": "resource", "lat": 65.25161252281804, "lon": -90.68941002305749, "alt_km": 723.0239856560011, "timestamp": "2025-12-22T20:43:45.500325+00:00", "meta": {"OBJECT_NAME": "FORMOSAT-5", "OBJECT_ID": "2017-049A", "EPOCH": "2025-12-22T13:35:12.270336", "MEAN_MOTION": 14.5076588, "ECCENTRICITY": 0.00098231, "INCLINATION": 98.2441, "RA_OF_ASC_NODE": 70.6875, "ARG_OF_PERICENTER": 267.9728, "MEAN_ANOMALY": 92.0342, "EPHEMERIS_TYPE": 0, "CLASSIFICATION_TYPE": "U", "NORAD_CAT_ID": 42920, "ELEMENT_SET_NO": 999, "REV_AT_EPOCH": 44106, "BSTAR": 5.881464e-05, "MEAN_MOTION_DOT": 1.88e-06, "MEAN_MOTION_DDOT": 0}, "tle": {"line1": "1 42920U 17049A   25356.56611424  .00000188  00000+0  58815-4 0  9995", "line2": "2 42920  98.2441  70.6875 0009823 267.9728  92.0342 14.50765880441062"}}, "geometry": {"type": "Point", "coordinates": [-90.68941002305749, 65.25161252281804]}}, {"type": "Feature", "properties": {"norad_id": 42969, "name": "SENTINEL-5P", "group": "resource", "lat": 81.15224523600924, "lon": -147.7868726778371, "alt_km": 818.780263370707, "timestamp": "2025-12-22T20:43:45.500336+00:00", "meta": {"OBJECT_NAME": "SENTINEL-5P", "OBJECT_ID": "2017-064A", "EPOCH": "2025-12-22T08:28:13.032768", "MEAN_MOTION": 14.19519792, "ECCENTRICITY": 0.00010224, "INCLINATION": 98.78, "RA_OF_ASC_NODE": 294.8523, "ARG_OF_PERICENTER": 91.31, "MEAN_ANOMALY": 268.8193, "EPHEMERIS_TYPE": 0, "CLASSIFICATION_TYPE": "U", "NORAD_CAT_ID": 42969, "ELEMENT_SET_NO": 999, "REV_AT_EPOCH": 42447, "BSTAR": 5.5735992e-05, "MEAN_MOTION_DOT": 7.3e-07, "MEAN_MOTION_DDOT": 0}, "tle": {"line1": "1 42969U 17064A   25356.35292862  .00000073  00000+0  55736-4 0  9995", "line2": "2 42969  98.7800 294.8523 0001022  91.3100 268.8193 14.19519792424472"}}, "geometry": {"type": "Point", "coordinates": [-147.7868726778371, 81.15224523600924]}}]}